NOAA 15                 
1 25338U 98030A   22054.54939610  .00000049  00000+0  38829-4 0  9997
2 25338  98.6584  85.4995 0009322 269.0438  90.9673 14.26092215237032
DMSP 5D-3 F15 (USA 147) 
1 25991U 99067A   22054.62226465  .00000061  00000+0  53880-4 0  9997
2 25991  99.0452  44.2979 0010661 147.1384 326.4284 14.16501389147654
METEOSAT-8 (MSG-1)      
1 27509U 02040B   22054.55907564  .00000134  00000+0  00000+0 0  9999
2 27509   7.8277  51.2469 0001262 324.8011  20.0973  1.00267280 71468
DMSP 5D-3 F16 (USA 172) 
1 28054U 03048A   22054.58266546  .00000015  00000+0  31887-4 0  9995
2 28054  98.9805  44.8516 0006414 281.9207 187.2776 14.13653257946938
NOAA 18                 
1 28654U 05018A   22054.60294945  .00000110  00000+0  83376-4 0  9993
2 28654  98.9623 125.0767 0013289 294.2557  65.7226 14.12691323863905
METEOSAT-9 (MSG-2)      
1 28912U 05049B   22054.26647847  .00000105  00000+0  00000+0 0  9991
2 28912   5.7637  67.0126 0000923 250.2310 305.9384  1.00413696 59243
FORMOSAT-3 FM6          
1 29047U 06011A   22054.37178575  .00000174  00000+0  84058-4 0  9996
2 29047  71.9778 292.7219 0048459  79.3979 281.2610 14.28908245829269
FORMOSAT-3 FM1          
1 29048U 06011B   22054.54591611  .00000271  00000+0  12258-3 0  9996
2 29048  71.9658 202.5577 0042571  36.7730 323.6313 14.28859883831766
FORMOSAT-3 FM5          
1 29049U 06011C   22054.58322427  .00000204  00000+0  96398-4 0  9992
2 29049  72.0218  17.6350 0032957  57.8127 302.6198 14.28945053827562
FORMOSAT-3 FM3          
1 29050U 06011D   22054.57563157  .00000455  00000+0  10504-3 0  9992
2 29050  72.0149 100.6438 0051965 284.1203  75.4178 14.59255622846178
FORMOSAT-3 FM4          
1 29051U 06011E   22054.56845645  .00000106  00000+0  56772-4 0  9998
2 29051  72.0038 278.5263 0069704 298.5287  60.8843 14.28977185830146
FORMOSAT-3 FM2          
1 29052U 06011F   22054.52252644  .00000188  00000+0  89459-4 0  9994
2 29052  72.0365 354.6635 0039435  14.4715 345.7541 14.29088106827635
EWS-G1 (GOES 13)        
1 29155U 06018A   22054.61892825  .00000036  00000+0  00000+0 0  9998
2 29155   0.2979  98.0680 0003243 164.1790 175.5233  1.00269755 27585
METOP-A                 
1 29499U 06044A   22054.61098706  .00000630  00000+0  92618-4 0  9995
2 29499  98.4677  95.5290 0198832   5.1816 146.1269 14.66949688793984
DMSP 5D-3 F17 (USA 191) 
1 29522U 06050A   22054.58409002  .00000049  00000+0  48639-4 0  9998
2 29522  98.7743  71.7333 0009182 220.2370 139.8124 14.14073314789819
FENGYUN 3A              
1 32958U 08026A   22054.49658577  .00000060  00000+0  48919-4 0  9997
2 32958  98.4874  21.8786 0008752   0.5665 359.5520 14.18690306712068
FENGYUN 2E              
1 33463U 08066A   22054.56805910 -.00000207  00000+0  00000+0 0  9994
2 33463   5.6539  65.9579 0003840 348.6244  30.1042  1.00273593 48301
NOAA 19                 
1 33591U 09005A   22054.59147990  .00000066  00000+0  61072-4 0  9993
2 33591  99.1631  86.2578 0014499 144.9815 215.2312 14.12532172672118
GOES 14                 
1 35491U 09033A   22054.62793380 -.00000093  00000+0  00000+0 0  9999
2 35491   0.0454  71.0410 0012714 156.0454  47.9416  1.00270796 46328
METEOR-M 1              
1 35865U 09049A   22054.50344720  .00000050  00000+0  41447-4 0  9995
2 35865  98.5140  28.7373 0002162 168.9501 191.1725 14.22306944645340
DMSP 5D-3 F18 (USA 210) 
1 35951U 09057A   22054.57903807  .00000155  00000+0  10530-3 0  9998
2 35951  98.7109  36.8435 0012057  54.5290 305.7006 14.13448224637031
GOES 15                 
1 36411U 10008A   22054.60855095  .00000050  00000+0  00000+0 0  9998
2 36411   0.0179 146.8053 0002006 245.9593 212.0306  1.00281587 43885
COMS 1                  
1 36744U 10032A   22054.28924242 -.00000345  00000+0  00000+0 0  9997
2 36744   0.7775  95.4135 0000948 272.0033  18.0289  1.00269773 35299
FENGYUN 3B              
1 37214U 10059A   22054.51807562  .00000022  00000+0  35876-4 0  9995
2 37214  99.0923  58.4650 0021504 319.0656  40.8887 14.14244658584855
SUOMI NPP               
1 37849U 11061A   22054.60075696  .00000052  00000+0  45475-4 0  9997
2 37849  98.7228 354.7921 0000937  75.6805  97.1105 14.19545753535044
FENGYUN 2F              
1 38049U 12002A   22054.57303053 -.00000357  00000+0  00000+0 0  9992
2 38049   3.5137  80.5408 0006054 352.5953  38.2411  1.00258001 37104
METEOSAT-10 (MSG-3)     
1 38552U 12035B   22054.26551907  .00000060  00000+0  00000+0 0  9996
2 38552   1.3729  33.4583 0000940 238.5922 345.9157  1.00267805 35064
METOP-B                 
1 38771U 12049A   22054.61590822  .00000016  00000+0  27274-4 0  9990
2 38771  98.6808 116.0721 0001509  56.3898  98.4957 14.21497531489560
FENGYUN 3C              
1 39260U 13052A   22054.56907338  .00000012  00000+0  26936-4 0  9997
2 39260  98.4692  88.3712 0010035 239.2400 120.7788 14.15900818435808
METEOR-M 2              
1 40069U 14037A   22054.51216694  .00000005  00000+0  21600-4 0  9998
2 40069  98.4414  77.4618 0004658 300.7011  59.3707 14.20698220395685
HIMAWARI-8              
1 40267U 14060A   22054.43524564 -.00000277  00000+0  00000+0 0  9991
2 40267   0.0395 297.0548 0000897  93.9702  59.5957  1.00270887 26963
FENGYUN 2G              
1 40367U 14090A   22054.35526657 -.00000299  00000+0  00000+0 0  9995
2 40367   1.6480  90.5545 0004071 322.7085 327.0841  1.00259506 26201
METEOSAT-11 (MSG-4)     
1 40732U 15034A   22054.32757816 -.00000001  00000+0  00000+0 0  9991
2 40732   0.1975 347.1949 0001498  82.8815 201.2146  1.00279695 24237
ELEKTRO-L 2             
1 41105U 15074A   22054.18902874 -.00000117  00000+0  00000+0 0  9998
2 41105   2.7012  89.4847 0000975 155.2827 321.7743  1.00270326 22727
HIMAWARI-9              
1 41836U 16064A   22054.21981676 -.00000275  00000+0  00000+0 0  9995
2 41836   0.0279 236.0620 0000958 111.2529  25.6544  1.00271844 19399
GOES 16                 
1 41866U 16071A   22053.81802251 -.00000247  00000+0  00000+0 0  9991
2 41866   0.0827 279.6391 0001095  96.2679 356.0376  1.00271898 19315
FENGYUN 4A              
1 41882U 16077A   22054.56043438 -.00000331  00000+0  00000+0 0  9996
2 41882   0.1362  86.4973 0005830 349.7712  23.4318  1.00278273 19194
CYGFM05                 
1 41884U 16078A   22054.51002324  .00001874  00000+0  97914-4 0  9990
2 41884  34.9552 191.0802 0014812 152.7343 207.4149 15.15600145287481
CYGFM04                 
1 41885U 16078B   22054.53547390  .00002174  00000+0  11170-3 0  9993
2 41885  34.9484 180.7827 0013407 169.0838 191.0166 15.16114511287527
CYGFM02                 
1 41886U 16078C   22054.52822510  .00002214  00000+0  11364-3 0  9993
2 41886  34.9575 182.9848 0014065 163.0497 197.0686 15.16133109287608
CYGFM01                 
1 41887U 16078D   22054.56156220  .00002134  00000+0  11193-3 0  9997
2 41887  34.9519 192.9437 0015237 152.5378 207.6141 15.15377647287447
CYGFM08                 
1 41888U 16078E   22054.51420018  .00001902  00000+0  98752-4 0  9991
2 41888  34.9488 186.4073 0014584 163.4167 196.7023 15.15809114287567
CYGFM06                 
1 41889U 16078F   22054.50951346  .00001988  00000+0  10223-3 0  9994
2 41889  34.9572 181.8014 0013008 163.0149 197.1000 15.16145529287544
CYGFM07                 
1 41890U 16078G   22054.55573143  .00001866  00000+0  96187-4 0  9995
2 41890  34.9508 180.3461 0012887 167.9760 192.1261 15.16101716287534
CYGFM03                 
1 41891U 16078H   22054.61973396  .00001851  00000+0  95437-4 0  9998
2 41891  34.9542 180.3848 0012393 166.7223 193.3817 15.16097128287536
FENGYUN 3D              
1 43010U 17072A   22054.56200907  .00000022  00000+0  31840-4 0  9990
2 43010  98.8041 359.8034 0001134 191.8486 168.2651 14.19183053221614
NOAA 20                 
1 43013U 17073A   22054.53141630  .00000024  00000+0  32093-4 0  9991
2 43013  98.7468 354.6515 0001397  70.6509 289.4818 14.19529888221067
GOES 17                 
1 43226U 18022A   22054.60019441  .00000097  00000+0  00000+0 0  9992
2 43226   0.0684 283.1969 0000520 106.2449 202.8689  1.00271133 14635
FENGYUN 2H              
1 43491U 18050A   22054.42303510 -.00000130  00000+0  00000+0 0  9999
2 43491   0.8597  99.8465 0003185  18.1757 266.7875  1.00272993 13647
METOP-C                 
1 43689U 18087A   22054.55237191  .00000020  00000+0  29299-4 0  9996
2 43689  98.7004 116.2831 0003102  30.9073 329.2287 14.21496131171127
GEO-KOMPSAT-2A          
1 43823U 18100A   22054.28924242 -.00000344  00000+0  00000+0 0  9996
2 43823   0.0208  23.8669 0001331  28.7243 332.9237  1.00270379 11820
METEOR-M2 2             
1 44387U 19038A   22054.51084888 -.00000020  00000+0  10567-4 0  9997
2 44387  98.7078  16.2964 0000405 187.6616 172.4549 14.23699689137199
FENGYUN 3E              
1 49008U 21062A   22054.55636585 -.00000017  00000+0  12746-4 0  9990
2 49008  98.7099  58.3122 0001736   8.2108 351.9091 14.19820314 33155
